BREEZE-M R/B            
1 38746U 12044C   22054.31116543  .00006971  00000-0  41368-3 0  9994
2 38746  49.6899 150.7153 2374245 291.9712  44.6392 10.57243332351798
BREEZE-M DEB            
1 38884U 12044R   22054.57925422  .00013982  33100-5  38340-3 0  9997
2 38884  50.0066 135.9695 2239949 113.5605 271.5561 10.96367444364056
BREEZE-M DEB            
1 38888U 12044V   22054.38359668  .00052682  59001-5  74483-3 0  9999
2 38888  50.0192 308.0046 1556326  67.6242 308.1848 12.48871306392545
BREEZE-M DEB            
1 38921U 12044BE  22054.53896644  .00169919  11251-4  11259-2 0  9991
2 38921  50.1693 160.4106 0792442 333.4486  22.7806 14.26547203410167
BREEZE-M DEB            
1 38922U 12044BF  22054.47753075  .00015719  44791-5  36623-3 0  9992
2 38922  50.0559  84.9747 2023298  68.2681 312.0689 11.43662059374411
BREEZE-M DEB            
1 38926U 12044BK  22054.34004449  .00053556  56390-5  75303-3 0  9993
2 38926  49.9905  61.1664 1268804 220.4746 129.4709 13.11184107405529
BREEZE-M DEB            
1 38948U 12044CH  22054.34217371  .00053778  49903-5  81849-3 0  9997
2 38948  50.0606  20.4071 1411162 286.8339  58.2754 12.79105806399113
BREEZE-M DEB            
1 38957U 12044CQ  22054.23490861  .00085418  57726-5  10485-2 0  9997
2 38957  49.9967 126.8863 1357131 225.9393 122.1611 12.93731597395868
BREEZE-M DEB            
1 38960U 12044CT  22054.56302723  .00055274  53136-5  11186-2 0  9993
2 38960  50.1043 242.6347 1672837 144.9432 227.4002 12.18859413335303
BREEZE-M DEB            
1 38961U 12044CU  22054.27371460  .00051375  49918-5  76657-3 0  9992
2 38961  50.0705   6.3596 1410043 291.1284  54.4758 12.79652185392862
BREEZE-M DEB            
1 38971U 12044DE  22054.26548342  .00057396  60239-5  76307-3 0  9997
2 38971  50.0542  30.9354 1203855 208.3436 144.6548 13.26149136405681
